[{"OBJECT_NAME":"FORMOSAT-7R (TRITON)","OBJECT_ID":"2023-155B","EPOCH":"2026-03-09T15:28:30.241344","MEAN_MOTION":14.90780962,"ECCENTRICITY":0.00024206,"INCLINATION":97.8386,"RA_OF_ASC_NODE":150.7485,"ARG_OF_PERICENTER":77.6096,"MEAN_ANOMALY":282.5392,"EPHEMERIS_TYPE":0,"CLASSIFICATION_TYPE":"U","NORAD_CAT_ID":58017,"ELEMENT_SET_NO":999,"REV_AT_EPOCH":13139,"BSTAR":0.0002906759,"MEAN_MOTION_DOT":2.802e-5,"MEAN_MOTION_DDOT":0},{"OBJECT_NAME":"FENGYUN 1C DEB","OBJECT_ID":"1999-025ACB","EPOCH":"2026-03-07T16:41:05.627328","MEAN_MOTION":14.18493236,"ECCENTRICITY":0.03279537,"INCLINATION":98.1368,"RA_OF_ASC_NODE":341.1407,"ARG_OF_PERICENTER":71.5764,"MEAN_ANOMALY":312.8923,"EPHEMERIS_TYPE":0,"CLASSIFICATION_TYPE":"U","NORAD_CAT_ID":30364,"ELEMENT_SET_NO":999,"REV_AT_EPOCH":96845,"BSTAR":0.0030018736,"MEAN_MOTION_DOT":0.00010576,"MEAN_MOTION_DDOT":0}]
